[
    {
        "Altitude(m)": 713668.9671377866,
        "Argument of Periapsis(deg)": 0.004556048474650827,
        "Eccentricity": 0.0,
        "Inclination(deg)": 45.0,
        "Latitude(deg)": -34.92253102228072,
        "Longitude(deg)": -171.30799160210083,
        "Mean Anomaly(deg)": 233.70418665899234,
        "RAAN(deg)": 64.99569922341672,
        "Satellite Name": "Constellation 1 300",
        "Satellite Number": 300,
        "Semi-Major Axis(m)": 7083131.272910544,
        "Time(s)": 76
    },
    {
        "Altitude(m)": 713681.5082798674,
        "Argument of Periapsis(deg)": 0.004615996480896233,
        "Eccentricity": 0.0,
        "Inclination(deg)": 45.0,
        "Latitude(deg)": -34.953445448871186,
        "Longitude(deg)": -171.24860312584798,
        "Mean Anomaly(deg)": 233.76488779924227,
        "RAAN(deg)": 64.99564263425115,
        "Satellite Name": "Constellation 1 300",
        "Satellite Number": 300,
        "Semi-Major Axis(m)": 7083131.272910544,
        "Time(s)": 77
    },
    {
        "Altitude(m)": 713694.0383443215,
        "Argument of Periapsis(deg)": 0.004675944487141638,
        "Eccentricity": 0.0,
        "Inclination(deg)": 45.0,
        "Latitude(deg)": -34.984326451814155,
        "Longitude(deg)": -171.18916712832666,
        "Mean Anomaly(deg)": 233.82558893949215,
        "RAAN(deg)": 64.99558604508557,
        "Satellite Name": "Constellation 1 300",
        "Satellite Number": 300,
        "Semi-Major Axis(m)": 7083131.272910544,
        "Time(s)": 78
    },
    {
        "Altitude(m)": 713706.5572861679,
        "Argument of Periapsis(deg)": 0.004735892493387044,
        "Eccentricity": 0.0,
        "Inclination(deg)": 45.0,
        "Latitude(deg)": -35.015173968823724,
        "Longitude(deg)": -171.1296835705937,
        "Mean Anomaly(deg)": 233.88629007974205,
        "RAAN(deg)": 64.99552945592,
        "Satellite Name": "Constellation 1 300",
        "Satellite Number": 300,
        "Semi-Major Axis(m)": 7083131.272910544,
        "Time(s)": 79
    },
    {
        "Altitude(m)": 713719.0650604604,
        "Argument of Periapsis(deg)": 0.004795840499632449,
        "Eccentricity": 0.0,
        "Inclination(deg)": 45.0,
        "Latitude(deg)": -35.04598793755076,
        "Longitude(deg)": -171.07015241390516,
        "Mean Anomaly(deg)": 233.946991219992,
        "RAAN(deg)": 64.99547286675444,
        "Satellite Name": "Constellation 1 300",
        "Satellite Number": 300,
        "Semi-Major Axis(m)": 7083131.272910544,
        "Time(s)": 80
    },
    {
        "Altitude(m)": 713731.5616222892,
        "Argument of Periapsis(deg)": 0.004855788505877855,
        "Eccentricity": 0.0,
        "Inclination(deg)": 45.0,
        "Latitude(deg)": -35.076768295583506,
        "Longitude(deg)": -171.01057361971695,
        "Mean Anomaly(deg)": 234.00769236024186,
        "RAAN(deg)": 64.99541627758887,
        "Satellite Name": "Constellation 1 300",
        "Satellite Number": 300,
        "Semi-Major Axis(m)": 7083131.272910544,
        "Time(s)": 81
    },
    {
        "Altitude(m)": 713744.0469267833,
        "Argument of Periapsis(deg)": 0.00491573651212326,
        "Eccentricity": 0.0,
        "Inclination(deg)": 45.0,
        "Latitude(deg)": -35.107514980447185,
        "Longitude(deg)": -170.95094731778357,
        "Mean Anomaly(deg)": 234.06839350049177,
        "RAAN(deg)": 64.9953596884233,
        "Satellite Name": "Constellation 1 300",
        "Satellite Number": 300,
        "Semi-Major Axis(m)": 7083131.272910544,
        "Time(s)": 82
    },
    {
        "Altitude(m)": 713756.5209291079,
        "Argument of Periapsis(deg)": 0.004975684518368666,
        "Eccentricity": 0.0,
        "Inclination(deg)": 45.0,
        "Latitude(deg)": -35.13822792960575,
        "Longitude(deg)": -170.89127313377034,
        "Mean Anomaly(deg)": 234.12909464074167,
        "RAAN(deg)": 64.99530309925774,
        "Satellite Name": "Constellation 1 300",
        "Satellite Number": 300,
        "Semi-Major Axis(m)": 7083131.272910544,
        "Time(s)": 83
    },
    {
        "Altitude(m)": 713768.9835844443,
        "Argument of Periapsis(deg)": 0.005035632524614072,
        "Eccentricity": 0.0,
        "Inclination(deg)": 45.0,
        "Latitude(deg)": -35.16890708045989,
        "Longitude(deg)": -170.83155119783785,
        "Mean Anomaly(deg)": 234.18979578099152,
        "RAAN(deg)": 64.99524651009216,
        "Satellite Name": "Constellation 1 300",
        "Satellite Number": 300,
        "Semi-Major Axis(m)": 7083131.272910544,
        "Time(s)": 84
    },
    {
        "Altitude(m)": 713781.4348480401,
        "Argument of Periapsis(deg)": 0.0050955805308594785,
        "Eccentricity": 0.0,
        "Inclination(deg)": 45.0,
        "Latitude(deg)": -35.19955237034858,
        "Longitude(deg)": -170.77178147225433,
        "Mean Anomaly(deg)": 234.25049692124148,
        "RAAN(deg)": 64.99518992092659,
        "Satellite Name": "Constellation 1 300",
        "Satellite Number": 300,
        "Semi-Major Axis(m)": 7083131.272910544,
        "Time(s)": 85
    },
    {
        "Altitude(m)": 713793.8746751493,
        "Argument of Periapsis(deg)": 0.005155528537104883,
        "Eccentricity": 0.0,
        "Inclination(deg)": 45.0,
        "Latitude(deg)": -35.23016373654887,
        "Longitude(deg)": -170.7119639194944,
        "Mean Anomaly(deg)": 234.31119806149133,
        "RAAN(deg)": 64.99513333176102,
        "Satellite Name": "Constellation 1 300",
        "Satellite Number": 300,
        "Semi-Major Axis(m)": 7083131.272910544,
        "Time(s)": 86
    },
    {
        "Altitude(m)": 713806.3030210849,
        "Argument of Periapsis(deg)": 0.0052154765433502885,
        "Eccentricity": 0.0,
        "Inclination(deg)": 45.0,
        "Latitude(deg)": -35.26074111627634,
        "Longitude(deg)": -170.65209850223945,
        "Mean Anomaly(deg)": 234.37189920174123,
        "RAAN(deg)": 64.99507674259546,
        "Satellite Name": "Constellation 1 300",
        "Satellite Number": 300,
        "Semi-Major Axis(m)": 7083131.272910544,
        "Time(s)": 87
    },
    {
        "Altitude(m)": 713818.7198411796,
        "Argument of Periapsis(deg)": 0.005275424549595694,
        "Eccentricity": 0.0,
        "Inclination(deg)": 45.0,
        "Latitude(deg)": -35.29128444668486,
        "Longitude(deg)": -170.59218518338017,
        "Mean Anomaly(deg)": 234.43260034199113,
        "RAAN(deg)": 64.99502015342989,
        "Satellite Name": "Constellation 1 300",
        "Satellite Number": 300,
        "Semi-Major Axis(m)": 7083131.272910544,
        "Time(s)": 88
    },
    {
        "Altitude(m)": 713831.1250908128,
        "Argument of Periapsis(deg)": 0.0053353725558411,
        "Eccentricity": 0.0,
        "Inclination(deg)": 45.0,
        "Latitude(deg)": -35.32179366486688,
        "Longitude(deg)": -170.53222409411376,
        "Mean Anomaly(deg)": 234.49330148224107,
        "RAAN(deg)": 64.99496356426432,
        "Satellite Name": "Constellation 1 300",
        "Satellite Number": 300,
        "Semi-Major Axis(m)": 7083131.272910544,
        "Time(s)": 89
    },
    {
        "Altitude(m)": 713843.5187253949,
        "Argument of Periapsis(deg)": 0.005395320562086505,
        "Eccentricity": 0.0,
        "Inclination(deg)": 45.0,
        "Latitude(deg)": -35.352268707854584,
        "Longitude(deg)": -170.47221486155712,
        "Mean Anomaly(deg)": 234.55400262249094,
        "RAAN(deg)": 64.99490697509874,
        "Satellite Name": "Constellation 1 300",
        "Satellite Number": 300,
        "Semi-Major Axis(m)": 7083131.272910544,
        "Time(s)": 90
    },
    {
        "Altitude(m)": 713855.9007003705,
        "Argument of Periapsis(deg)": 0.00545526856833191,
        "Eccentricity": 0.0,
        "Inclination(deg)": 45.0,
        "Latitude(deg)": -35.38270951261834,
        "Longitude(deg)": -170.4121576173311,
        "Mean Anomaly(deg)": 234.6147037627408,
        "RAAN(deg)": 64.99485038593318,
        "Satellite Name": "Constellation 1 300",
        "Satellite Number": 300,
        "Semi-Major Axis(m)": 7083131.272910544,
        "Time(s)": 91
    },
    {
        "Altitude(m)": 713868.2709712288,
        "Argument of Periapsis(deg)": 0.005515216574577317,
        "Eccentricity": 0.0,
        "Inclination(deg)": 45.0,
        "Latitude(deg)": -35.41311601606815,
        "Longitude(deg)": -170.35205232517254,
        "Mean Anomaly(deg)": 234.67540490299072,
        "RAAN(deg)": 64.99479379676761,
        "Satellite Name": "Constellation 1 300",
        "Satellite Number": 300,
        "Semi-Major Axis(m)": 7083131.272910544,
        "Time(s)": 92
    },
    {
        "Altitude(m)": 713880.6294934918,
        "Argument of Periapsis(deg)": 0.005575164580822722,
        "Eccentricity": 0.0,
        "Inclination(deg)": 45.0,
        "Latitude(deg)": -35.44348815505354,
        "Longitude(deg)": -170.29189894903325,
        "Mean Anomaly(deg)": 234.73610604324065,
        "RAAN(deg)": 64.99473720760203,
        "Satellite Name": "Constellation 1 300",
        "Satellite Number": 300,
        "Semi-Major Axis(m)": 7083131.272910544,
        "Time(s)": 93
    },
    {
        "Altitude(m)": 713892.9762227192,
        "Argument of Periapsis(deg)": 0.005635112587068129,
        "Eccentricity": 0.0,
        "Inclination(deg)": 45.0,
        "Latitude(deg)": -35.47382586636362,
        "Longitude(deg)": -170.23169745308124,
        "Mean Anomaly(deg)": 234.79680718349056,
        "RAAN(deg)": 64.99468061843646,
        "Satellite Name": "Constellation 1 300",
        "Satellite Number": 300,
        "Semi-Major Axis(m)": 7083131.272910544,
        "Time(s)": 94
    }
]